SPAWAR-CAL-O            
1 43766U 18099J   26068.73975788  .00021069  00000+0  69663-3 0  9999
2 43766  97.4452 132.0993 0007239 285.0670  74.9770 15.31356755398280
STARLINK-31252          
1 59083U 24041K   26068.48521130 -.00000986  00000+0 -26340-4 0  9995
2 59083  43.0013 228.6690 0000992 273.3131  86.7607 15.27568610115249
